{"type": "FeatureCollection", "features": [ {"type": "Feature", "properties": {"norad_id": 34953, "name": "COSMOS 2251 DEB", "group": "cosmos-2251-debris", "lat": -64.94541426072982, "lon": 5.489133315100378, "alt_km": 683.9354563251973, "timestamp": "2025-12-04T15:47:54.494724+00:00", "meta": {"OBJECT_NAME": "COSMOS 2251 DEB", "OBJECT_ID": "1993-036AEG", "EPOCH": "2025-12-04T06:36:02.186784", "MEAN_MOTION": 14.68838342, "ECCENTRICITY": 0.00576625, "INCLINATION": 74.0941, "RA_OF_ASC_NODE": 43.8179, "ARG_OF_PERICENTER": 38.4559, "MEAN_ANOMALY": 26.1347, "EPHEMERIS_TYPE": 0, "CLASSIFICATION_TYPE": "U", "NORAD_CAT_ID": 34953, "ELEMENT_SET_NO": 999, "REV_AT_EPOCH": 88004, "BSTAR": 0.0019147117, "MEAN_MOTION_DOT": 0.00011459, "MEAN_MOTION_DDOT": 0}, "tle": {"line1": "1 34953U 93036AEG 25338.27502531  .00011459  00000+0  19147-2 0  9994", "line2": "2 34953  74.0941  43.8179 0057662  38.4559  26.1347 14.68838342880043"}}, "geometry": {"type": "Point", "coordinates": [5.489133315100378, -64.94541426072982]}}, {"type": "Feature", "properties": {"norad_id": 34955, "name": "COSMOS 2251 DEB", "group": "cosmos-2251-debris", "lat": -44.91140363385873, "lon": 99.52084740787379, "alt_km": 588.37806043206, "timestamp": "2025-12-04T15:47:54.494734+00:00", "meta": {"OBJECT_NAME": "COSMOS 2251 DEB", "OBJECT_ID": "1993-036AEJ", "EPOCH": "2025-12-03T01:58:24.293568", "MEAN_MOTION": 15.00189355, "ECCENTRICITY": 0.00783052, "INCLINATION": 74.0373, "RA_OF_ASC_NODE": 266.1437, "ARG_OF_PERICENTER": 338.174, "MEAN_ANOMALY": 21.6115, "EPHEMERIS_TYPE": 0, "CLASSIFICATION_TYPE": "U", "NORAD_CAT_ID": 34955, "ELEMENT_SET_NO": 999, "REV_AT_EPOCH": 89889, "BSTAR": 0.0013091752, "MEAN_MOTION_DOT": 0.00017463, "MEAN_MOTION_DDOT": 0}, "tle": {"line1": "1 34955U 93036AEJ 25337.08222562  .00017463  00000+0  13092-2 0  9991", "line2": "2 34955  74.0373 266.1437 0078305 338.1740  21.6115 15.00189355898895"}}, "geometry": {"type": "Point", "coordinates": [99.52084740787379, -44.91140363385873]}}, {"type": "Feature", "properties": {"norad_id": 34962, "name": "COSMOS 2251 DEB", "group": "cosmos-2251-debris", "lat": 33.51750948195159, "lon": 17.525969907934176, "alt_km": 747.9219045589371, "timestamp": "2025-12-04T15:47:54.494745+00:00", "meta": {"OBJECT_NAME": "COSMOS 2251 DEB", "OBJECT_ID": "1993-036AER", "EPOCH": "2025-12-03T09:15:09.558720", "MEAN_MOTION": 14.4647129, "ECCENTRICITY": 0.00185566, "INCLINATION": 74.0295, "RA_OF_ASC_NODE": 210.8361, "ARG_OF_PERICENTER": 325.0213, "MEAN_ANOMALY": 34.9725, "EPHEMERIS_TYPE": 0, "CLASSIFICATION_TYPE": "U", "NORAD_CAT_ID": 34962, "ELEMENT_SET_NO": 999, "REV_AT_EPOCH": 87443, "BSTAR": 0.00060190485, "MEAN_MOTION_DOT": 2.143e-05, "MEAN_MOTION_DDOT": 0}, "tle": {"line1": "1 34962U 93036AER 25337.38552730  .00002143  00000+0  60190-3 0  9996", "line2": "2 34962  74.0295 210.8361 0018556 325.0213  34.9725 14.46471290874439"}}, "geometry": {"type": "Point", "coordinates": [17.525969907934176, 33.51750948195159]}}, {"type": "Feature", "properties": {"norad_id": 34963, "name": "COSMOS 2251 DEB", "group": "cosmos-2251-debris", "lat": -74.03899063742772, "lon": -24.870111157120135, "alt_km": 700.515176573449, "timestamp": "2025-12-04T15:47:54.494755+00:00", "meta": {"OBJECT_NAME": "COSMOS 2251 DEB", "OBJECT_ID": "1993-036AES", "EPOCH": "2025-12-03T12:04:13.425888", "MEAN_MOTION": 14.50919507, "ECCENTRICITY": 0.00426303, "INCLINATION": 74.172, "RA_OF_ASC_NODE": 59.975, "ARG_OF_PERICENTER": 258.0433, "MEAN_ANOMALY": 101.5948, "EPHEMERIS_TYPE": 0, "CLASSIFICATION_TYPE": "U", "NORAD_CAT_ID": 34963, "ELEMENT_SET_NO": 999, "REV_AT_EPOCH": 86667, "BSTAR": 0.0019734097, "MEAN_MOTION_DOT": 7.865e-05, "MEAN_MOTION_DDOT": 0}, "tle": {"line1": "1 34963U 93036AES 25337.50293317  .00007865  00000+0  19734-2 0  9997", "line2": "2 34963  74.1720  59.9750 0042630 258.0433 101.5948 14.50919507866675"}}, "geometry": {"type": "Point", "coordinates": [-24.870111157120135, -74.03899063742772]}}, {"type": "Feature", "properties": {"norad_id": 34964, "name": "COSMOS 2251 DEB", "group": "cosmos-2251-debris", "lat": -38.96895378038303, "lon": -11.536404618808637, "alt_km": 914.5214271540162, "timestamp": "2025-12-04T15:47:54.494765+00:00", "meta": {"OBJECT_NAME": "COSMOS 2251 DEB", "OBJECT_ID": "1993-036AET", "EPOCH": "2025-12-01T10:51:07.970112", "MEAN_MOTION": 14.00515212, "ECCENTRICITY": 0.02132053, "INCLINATION": 73.9732, "RA_OF_ASC_NODE": 7.4842, "ARG_OF_PERICENTER": 228.1536, "MEAN_ANOMALY": 130.1229, "EPHEMERIS_TYPE": 0, "CLASSIFICATION_TYPE": "U", "NORAD_CAT_ID": 34964, "ELEMENT_SET_NO": 999, "REV_AT_EPOCH": 84320, "BSTAR": 0.0017784594, "MEAN_MOTION_DOT": 3.191e-05, "MEAN_MOTION_DDOT": 0}, "tle": {"line1": "1 34964U 93036AET 25335.45217558  .00003191  00000+0  17785-2 0  9995", "line2": "2 34964  73.9732   7.4842 0213205 228.1536 130.1229 14.00515212843200"}}, "geometry": {"type": "Point", "coordinates": [-11.536404618808637, -38.96895378038303]}}, {"type": "Feature", "properties": {"norad_id": 34965, "name": "COSMOS 2251 DEB", "group": "cosmos-2251-debris", "lat": 63.425079769132985, "lon": 178.46692679563077, "alt_km": 740.7456178450848, "timestamp": "2025-12-04T15:47:54.494776+00:00", "meta": {"OBJECT_NAME": "COSMOS 2251 DEB", "OBJECT_ID": "1993-036AEU", "EPOCH": "2025-12-03T17:56:13.193952", "MEAN_MOTION": 14.48667662, "ECCENTRICITY": 0.00265132, "INCLINATION": 74.0501, "RA_OF_ASC_NODE": 145.3009, "ARG_OF_PERICENTER": 273.8401, "MEAN_ANOMALY": 85.9727, "EPHEMERIS_TYPE": 0, "CLASSIFICATION_TYPE": "U", "NORAD_CAT_ID": 34965, "ELEMENT_SET_NO": 999, "REV_AT_EPOCH": 86983, "BSTAR": 0.00048063509, "MEAN_MOTION_DOT": 1.791e-05, "MEAN_MOTION_DDOT": 0}, "tle": {"line1": "1 34965U 93036AEU 25337.74737493  .00001791  00000+0  48064-3 0  9994", "line2": "2 34965  74.0501 145.3009 0026513 273.8401  85.9727 14.48667662869832"}}, "geometry": {"type": "Point", "coordinates": [178.46692679563077, 63.425079769132985]}}, {"type": "Feature", "properties": {"norad_id": 34967, "name": "COSMOS 2251 DEB", "group": "cosmos-2251-debris", "lat": 65.46730972920389, "lon": 49.96372412864683, "alt_km": 721.2425755963995, "timestamp": "2025-12-04T15:47:54.494786+00:00", "meta": {"OBJECT_NAME": "COSMOS 2251 DEB", "OBJECT_ID": "1993-036AEW", "EPOCH": "2025-12-01T02:30:41.683104", "MEAN_MOTION": 14.44168549, "ECCENTRICITY": 0.00374829, "INCLINATION": 73.9933, "RA_OF_ASC_NODE": 275.5612, "ARG_OF_PERICENTER": 64.8384, "MEAN_ANOMALY": 295.6653, "EPHEMERIS_TYPE": 0, "CLASSIFICATION_TYPE": "U", "NORAD_CAT_ID": 34967, "ELEMENT_SET_NO": 999, "REV_AT_EPOCH": 64789, "BSTAR": 0.00079995093, "MEAN_MOTION_DOT": 2.741e-05, "MEAN_MOTION_DDOT": 0}, "tle": {"line1": "1 34967U 93036AEW 25335.10464911  .00002741  00000+0  79995-3 0  9999", "line2": "2 34967  73.9933 275.5612 0037482  64.8384 295.6653 14.44168549647896"}}, "geometry": {"type": "Point", "coordinates": [49.96372412864683, 65.46730972920389]}}, {"type": "Feature", "properties": {"norad_id": 34968, "name": "COSMOS 2251 DEB", "group": "cosmos-2251-debris", "lat": -58.86890749113032, "lon": 110.7594985563814, "alt_km": 749.8975891446908, "timestamp": "2025-12-04T15:47:54.494823+00:00", "meta": {"OBJECT_NAME": "COSMOS 2251 DEB", "OBJECT_ID": "1993-036AEX", "EPOCH": "2025-12-02T01:48:56.339712", "MEAN_MOTION": 14.59372646, "ECCENTRICITY": 0.00862303, "INCLINATION": 74.039, "RA_OF_ASC_NODE": 267.3956, "ARG_OF_PERICENTER": 30.5548, "MEAN_ANOMALY": 330.0599, "EPHEMERIS_TYPE": 0, "CLASSIFICATION_TYPE": "U", "NORAD_CAT_ID": 34968, "ELEMENT_SET_NO": 999, "REV_AT_EPOCH": 88322, "BSTAR": 0.00022982614, "MEAN_MOTION_DOT": 1.114e-05, "MEAN_MOTION_DDOT": 0}, "tle": {"line1": "1 34968U 93036AEX 25336.07565208  .00001114  00000+0  22983-3 0  9996", "line2": "2 34968  74.0390 267.3956 0086230  30.5548 330.0599 14.59372646883226"}}, "geometry": {"type": "Point", "coordinates": [110.7594985563814, -58.86890749113032]}}, {"type": "Feature", "properties": {"norad_id": 34969, "name": "COSMOS 2251 DEB", "group": "cosmos-2251-debris", "lat": 40.416157702234905, "lon": 52.04374553429223, "alt_km": 815.1663866526142, "timestamp": "2025-12-04T15:47:54.494835+00:00", "meta": {"OBJECT_NAME": "COSMOS 2251 DEB", "OBJECT_ID": "1993-036AEY", "EPOCH": "2025-11-27T22:39:52.818912", "MEAN_MOTION": 14.32217313, "ECCENTRICITY": 0.0074445, "INCLINATION": 74.0147, "RA_OF_ASC_NODE": 50.1773, "ARG_OF_PERICENTER": 186.867, "MEAN_ANOMALY": 173.1469, "EPHEMERIS_TYPE": 0, "CLASSIFICATION_TYPE": "U", "NORAD_CAT_ID": 34969, "ELEMENT_SET_NO": 999, "REV_AT_EPOCH": 64925, "BSTAR": 0.00041332, "MEAN_MOTION_DOT": 1.123e-05, "MEAN_MOTION_DDOT": 0}, "tle": {"line1": "1 34969U 93036AEY 25331.94436133  .00001123  00000+0  41332-3 0  9991", "line2": "2 34969  74.0147  50.1773 0074445 186.8670 173.1469 14.32217313649253"}}, "geometry": {"type": "Point", "coordinates": [52.04374553429223, 40.416157702234905]}}, {"type": "Feature", "properties": {"norad_id": 34971, "name": "COSMOS 2251 DEB", "group": "cosmos-2251-debris", "lat": 51.4575996609872, "lon": -38.47874860320532, "alt_km": 721.8185248604368, "timestamp": "2025-12-04T15:47:54.494846+00:00", "meta": {"OBJECT_NAME": "COSMOS 2251 DEB", "OBJECT_ID": "1993-036AFA", "EPOCH": "2025-12-04T04:04:33.254112", "MEAN_MOTION": 14.55612791, "ECCENTRICITY": 0.00699688, "INCLINATION": 73.9782, "RA_OF_ASC_NODE": 301.3068, "ARG_OF_PERICENTER": 169.1818, "MEAN_ANOMALY": 207.5998, "EPHEMERIS_TYPE": 0, "CLASSIFICATION_TYPE": "U", "NORAD_CAT_ID": 34971, "ELEMENT_SET_NO": 999, "REV_AT_EPOCH": 66048, "BSTAR": 0.00032049169, "MEAN_MOTION_DOT": 1.415e-05, "MEAN_MOTION_DDOT": 0}, "tle": {"line1": "1 34971U 93036AFA 25338.16982933  .00001415  00000+0  32049-3 0  9998", "line2": "2 34971  73.9782 301.3068 0069968 169.1818 207.5998 14.55612791660480"}}, "geometry": {"type": "Point", "coordinates": [-38.47874860320532, 51.4575996609872]}}]}